NORAD_CAT_ID,OBJECT_NAME,OBJECT_TYPE,EPOCH,MEAN_MOTION,ECCENTRICITY,INCLINATION,RA_OF_ASC_NODE,ARG_OF_PERICENTER,MEAN_ANOMALY,BSTAR,MEAN_MOTION_DOT,MEAN_MOTION_DDOT,TLE_LINE0,TLE_LINE1,TLE_LINE2,SEMIMAJOR_AXIS,PERIOD,APOGEE,PERIGEE,DECAYED
53158.0,STARLINK-4054,PAYLOAD,2022-10-14 20:00:01,15.08838257,0.0001479,53.2175,339.0236,53.4846,171.3569,-0.00018378,-3.211e-05,0.0,0 STARLINK-4054,1 53158U 22083AC  22287.83334491 -.00003211  00000-0 -18378-3 0  9992,2 53158  53.2175 339.0236 0001479  53.4846 171.3569 15.08838257  1307,6917.886,95.438,540.774,538.7280000000002,0.0
53158.0,STARLINK-4054,PAYLOAD,2022-10-15 06:00:00,15.08867456,0.0001541999999999,53.2165,337.1535,57.004,272.3116,-0.002919,-0.00046479,0.0,0 STARLINK-4054,1 53158U 22083AC  22288.25001157 -.00046479  00000-0 -29190-2 0  9995,2 53158  53.2165 337.1535 0001542  57.0040 272.3116 15.08867456 14569,6917.795999999999,95.436,540.7280000000002,538.595,0.0
53158.0,STARLINK-4054,PAYLOAD,2022-10-15 14:00:01,15.08834937,0.000172,53.2129,335.6621,59.8882,280.9885,0.00095541,0.00014948,0.0,0 STARLINK-4054,1 53158U 22083AC  22288.58334491  .00014948  00000-0  95541-3 0  9999,2 53158  53.2129 335.6621 0001720  59.8882 280.9885 15.08834937  1304,6917.896,95.438,540.951,538.571,0.0
53158.0,STARLINK-4054,PAYLOAD,2022-10-15 22:00:01,15.08814662,0.0001563,53.2129,334.1637,64.9218,287.6243,0.0022558,0.00035771,0.0,0 STARLINK-4054,1 53158U 22083AC  22288.91668981  .00035771  00000-0  22558-2 0  9994,2 53158  53.2129 334.1637 0001563  64.9218 287.6243 15.08814662  1305,6917.958000000001,95.439,540.904,538.742,0.0
53158.0,STARLINK-4054,PAYLOAD,2022-10-16 06:00:00,15.08861363,0.0001594,53.213,332.6678,64.8368,299.2172,-0.0013142999999999,-0.00021156,0.0,0 STARLINK-4054,1 53158U 22083AC  22289.25001157 -.00021156  00000-0 -13143-2 0  9992,2 53158  53.2130 332.6678 0001594  64.8368 299.2172 15.08861363 14724,6917.815,95.436,540.783,538.577,0.0
53158.0,STARLINK-4054,PAYLOAD,2022-10-16 14:00:01,15.08823324,0.0001653,53.2133,331.172,56.2322,319.441,0.0021422,0.00033954,0.0,0 STARLINK-4054,1 53158U 22083AC  22289.58334491  .00033954  00000-0  21422-2 0  9994,2 53158  53.2133 331.1720 0001653  56.2322 319.4410 15.08823324  1305,6917.931,95.439,540.94,538.653,0.0
53158.0,STARLINK-4054,PAYLOAD,2022-10-16 22:00:00,15.0882041,0.0001496,53.2137,329.6736,61.8109,325.4456,0.0025939,0.00041213,0.0,0 STARLINK-4054,1 53158U 22083AC  22289.91667824  .00041213  00000-0  25939-2 0  9994,2 53158  53.2137 329.6736 0001496  61.8109 325.4456 15.08820410  1308,6917.94,95.439,540.84,538.77,0.0
53158.0,STARLINK-4054,PAYLOAD,2022-10-17 06:00:00,15.08878549,0.0001578,53.214,328.1778,60.8905,337.9497,-0.0025715,-0.00041024,0.0,0 STARLINK-4054,1 53158U 22083AC  22290.25001157 -.00041024  00000-0 -25715-2 0  9998,2 53158  53.2140 328.1778 0001578  60.8905 337.9497 15.08878549 14871,6917.763000000001,95.435,540.719,538.536,0.0
53158.0,STARLINK-4054,PAYLOAD,2022-10-17 14:00:01,15.08827598,0.0001644,53.2136,326.6824,52.7422,357.733,0.0029622,0.00047155,0.0,0 STARLINK-4054,1 53158U 22083AC  22290.58334491  .00047155  00000-0  29622-2 0  9994,2 53158  53.2136 326.6824 0001644  52.7422 357.7330 15.08827598  1307,6917.918000000002,95.438,540.9209999999998,538.646,0.0
53158.0,STARLINK-4054,PAYLOAD,2022-10-17 22:00:00,15.08825804,0.0001541,53.2141,325.184,60.70399999999999,1.3703,0.00088097,0.00013755,0.0,0 STARLINK-4054,1 53158U 22083AC  22290.91667824  .00013755  00000-0  88097-3 0  9991,2 53158  53.2141 325.1840 0001541  60.7040   1.3703 15.08825804  1300,6917.924,95.438,540.855,538.7230000000002,0.0
53158.0,STARLINK-4054,PAYLOAD,2022-10-18 06:00:00,15.0886191,0.0001636,53.2154,323.687,62.729,10.9243,-0.0026062,-0.00041552,0.0,0 STARLINK-4054,1 53158U 22083AC  22291.25001157 -.00041552  00000-0 -26062-2 0  9991,2 53158  53.2154 323.6870 0001636  62.7290  10.9243 15.08861910 15021,6917.813,95.436,540.81,538.547,0.0
53158.0,STARLINK-4054,PAYLOAD,2022-10-18 14:00:01,15.08833167,0.0001724,53.2135,322.1932,53.3641,31.8774,1.3057e-05,-8e-07,0.0,0 STARLINK-4054,1 53158U 22083AC  22291.58334491 -.00000080  00000-0  13057-4 0  9999,2 53158  53.2135 322.1932 0001724  53.3641  31.8774 15.08833167  1307,6917.901,95.438,540.9590000000002,538.5740000000002,0.0
53158.0,STARLINK-4054,PAYLOAD,2022-10-18 22:00:00,15.08805352,0.0001526,53.2138,320.695,59.8021,37.0372,0.0030747,0.00048939,0.0,0 STARLINK-4054,1 53158U 22083AC  22291.91667824  .00048939  00000-0  30747-2 0  9992,2 53158  53.2138 320.6950 0001526  59.8021  37.0372 15.08805352  1303,6917.986,95.44,540.9069999999998,538.7959999999998,0.0
53158.0,STARLINK-4054,PAYLOAD,2022-10-19 14:00:01,15.08838859,0.0001703,53.2135,317.7038,52.2241,67.7822,0.0012592,0.00019808,0.0,0 STARLINK-4054,1 53158U 22083AC  22292.58334491  .00019808  00000-0  12592-2 0  9998,2 53158  53.2135 317.7038 0001703  52.2241  67.7822 15.08838859 15226,6917.884,95.438,540.927,538.571,0.0
53158.0,STARLINK-4054,PAYLOAD,2022-10-19 22:00:00,15.08819281,0.0001473,53.2137,316.2056,58.9794,72.6428,0.0018533,0.00029314,0.0,0 STARLINK-4054,1 53158U 22083AC  22292.91667824  .00029314  00000-0  18533-2 0  9998,2 53158  53.2137 316.2056 0001473  58.9794  72.6428 15.08819281  1301,6917.944,95.439,540.828,538.79,0.0
53158.0,STARLINK-4054,PAYLOAD,2022-10-20 06:00:00,15.08852012,0.000156,53.2137,314.7102,57.1068,86.0968,-0.0011036,-0.00017815,0.0,0 STARLINK-4054,1 53158U 22083AC  22293.25001157 -.00017815  00000-0 -11036-2 0  9993,2 53158  53.2137 314.7102 0001560  57.1068  86.0968 15.08852012 15322,6917.844,95.437,540.788,538.629,0.0
53158.0,STARLINK-4054,PAYLOAD,2022-10-20 14:00:01,15.08853145,0.0001626,53.2137,313.2139,51.1695,103.6337,-0.00042951,-7.120000000000001e-05,0.0,0 STARLINK-4054,1 53158U 22083AC  22293.58334491 -.00007120  00000-0 -42951-3 0  9998,2 53158  53.2137 313.2139 0001626  51.1695 103.6337 15.08853145  1306,6917.84,95.437,540.83,538.58,0.0
53158.0,STARLINK-4054,PAYLOAD,2022-10-20 22:00:00,15.08804009,0.0001374,53.2138,311.7158,58.3374,108.0703,0.002834,0.00045059,0.0,0 STARLINK-4054,1 53158U 22083AC  22293.91667824  .00045059  00000-0  28340-2 0  9990,2 53158  53.2138 311.7158 0001374  58.3374 108.0703 15.08804009  1305,6917.99,95.44,540.806,538.905,0.0
53158.0,STARLINK-4054,PAYLOAD,2022-10-21 06:00:00,15.08845123,0.0001491,53.2142,310.2209,55.507,122.4746,-0.0011205,-0.00018079,0.0,0 STARLINK-4054,1 53158U 22083AC  22294.25001157 -.00018079  00000-0 -11205-2 0  9995,2 53158  53.2142 310.2209 0001491  55.5070 122.4746 15.08845123 15475,6917.865,95.437,540.761,538.698,0.0
53158.0,STARLINK-4054,PAYLOAD,2022-10-21 14:00:01,15.08844649,0.0001553,53.2133,308.7245,50.9585,138.6258,0.0010754,0.00016871,0.0,0 STARLINK-4054,1 53158U 22083AC  22294.58334491  .00016871  00000-0  10754-2 0  9995,2 53158  53.2133 308.7245 0001553  50.9585 138.6258 15.08844649  1302,6917.866,95.437,540.806,538.6569999999998,0.0
53158.0,STARLINK-4054,PAYLOAD,2022-10-21 22:00:00,15.08838064,0.000133,53.2127,307.2267,58.4448,142.7444,-9.5137e-05,-1.802e-05,0.0,0 STARLINK-4054,1 53158U 22083AC  22294.91667824 -.00001802  00000-0 -95137-4 0  9991,2 53158  53.2127 307.2267 0001330  58.4448 142.7444 15.08838064  1304,6917.886,95.438,540.6709999999998,538.831,0.0
53158.0,STARLINK-4054,PAYLOAD,2022-10-22 14:00:01,15.08841326,0.0001476999999999,53.2139,304.2352,50.0926,174.2723,0.00017967,2.573e-05,0.0,0 STARLINK-4054,1 53158U 22083AC  22295.58334491  .00002573  00000-0  17967-3 0  9994,2 53158  53.2139 304.2352 0001477  50.0926 174.2723 15.08841326  1305,6917.876,95.437,540.763,538.72,0.0
53158.0,STARLINK-4054,PAYLOAD,2022-10-22 22:00:00,15.08885044,0.0001578,53.2138,302.7371,67.2342,168.7619,-0.0035704,-0.00056734,0.0,0 STARLINK-4054,1 53158U 22083AC  22295.91667824 -.00056734  00000-0 -35704-2 0  9998,2 53158  53.2138 302.7371 0001578  67.2342 168.7619 15.08885044  1309,6917.743,95.435,540.6990000000002,538.516,0.0
53158.0,STARLINK-4054,PAYLOAD,2022-10-23 14:00:01,15.08870743,0.0001774,53.2135,299.7454,61.4106,197.8169,-0.0026834,-0.00042778,0.0,0 STARLINK-4054,1 53158U 22083AC  22296.58334491 -.00042778  00000-0 -26834-2 0  9990,2 53158  53.2135 299.7454 0001774  61.4106 197.8169 15.08870743 15820,6917.786,95.436,540.879,538.424,0.0
53158.0,STARLINK-4054,PAYLOAD,2022-10-23 22:00:00,15.08810158,0.0001651,53.2135,298.2472,67.4186,203.4323,0.0031701999999999,0.00050486,0.0,0 STARLINK-4054,1 53158U 22083AC  22296.91667824  .00050486  00000-0  31702-2 0  9999,2 53158  53.2135 298.2472 0001651  67.4186 203.4323 15.08810158  1300,6917.972,95.439,540.979,538.694,0.0
53158.0,STARLINK-4054,PAYLOAD,2022-10-24 06:00:00,15.08862964,0.000167,53.2136,296.7522,61.5017,220.9295,-0.0054273,-0.00085692,0.0,0 STARLINK-4054,1 53158U 22083AC  22297.25001157 -.00085692  00000-0 -54273-2 0  9995,2 53158  53.2136 296.7522 0001670  61.5017 220.9295 15.08862964 15926,6917.81,95.436,540.83,538.52,0.0
53158.0,STARLINK-4054,PAYLOAD,2022-10-24 14:00:01,15.08803722,0.0001571,53.2136,295.2555,55.515,238.5023,-0.0018749,-0.00029974,0.0,0 STARLINK-4054,1 53158U 22083AC  22297.58334491 -.00029974  00000-0 -18749-2 0  9990,2 53158  53.2136 295.2555 0001571  55.5150 238.5023 15.08803722  1305,6917.991,95.44,540.943,538.769,0.0
53158.0,STARLINK-4054,PAYLOAD,2022-10-24 22:00:00,15.08760312,0.0001536,53.2138,293.7574,63.7973,241.7656,0.0061701,0.00099076,0.0,0 STARLINK-4054,1 53158U 22083AC  22297.91667824  .00099076  00000-0  61701-2 0  9990,2 53158  53.2138 293.7574 0001536  63.7973 241.7656 15.08760312  1301,6918.124,95.443,541.052,538.9259999999998,0.0
53158.0,STARLINK-4054,PAYLOAD,2022-10-25 14:00:01,15.08847851,0.0001712,53.2141,290.7657,57.3231,271.3542,-0.0013184,-0.00021214,0.0,0 STARLINK-4054,1 53158U 22083AC  22298.58334491 -.00021214  00000-0 -13184-2 0  9998,2 53158  53.2141 290.7657 0001712  57.3231 271.3542 15.08847851 16129,6917.856,95.437,540.906,538.5369999999998,0.0
